{
    "links": {
        "self": "http://www.neowsapp.com/rest/v1/neo/3164406?api_key=iIulBulltgU6a56xZRHN4H3l9WmuAYTsLGpBGhQ2"
    },
    "id": "3164406",
    "neo_reference_id": "3164406",
    "name": "(2003 UC22)",
    "designation": "2003 UC22",
    "nasa_jpl_url": "http://ssd.jpl.nasa.gov/sbdb.cgi?sstr=3164406",
    "absolute_magnitude_h": 22.1,
    "estimated_diameter": {
        "kilometers": {
            "estimated_diameter_min": 0.1010543415,
            "estimated_diameter_max": 0.2259643771
        },
        "meters": {
            "estimated_diameter_min": 101.054341542,
            "estimated_diameter_max": 225.9643771094
        },
        "miles": {
            "estimated_diameter_min": 0.0627922373,
            "estimated_diameter_max": 0.140407711
        },
        "feet": {
            "estimated_diameter_min": 331.5431259047,
            "estimated_diameter_max": 741.3529669956
        }
    },
    "is_potentially_hazardous_asteroid": false,
    "close_approach_data": [
        {
            "close_approach_date": "2003-10-20",
            "close_approach_date_full": "2003-Oct-20 15:47",
            "epoch_date_close_approach": 1066664820000,
            "relative_velocity": {
                "kilometers_per_second": "2.8453182414",
                "kilometers_per_hour": "10243.1456689346",
                "miles_per_hour": "6364.6923741222"
            },
            "miss_distance": {
                "astronomical": "0.2712549088",
                "lunar": "105.5181595232",
                "kilometers": "40579156.583524256",
                "miles": "25214718.6789604928"
            },
            "orbiting_body": "Earth"
        }
    ],
    "orbital_data": {
        "orbit_id": "13",
        "orbit_determination_date": "2017-04-06 09:13:36",
        "first_observation_date": "2003-10-22",
        "last_observation_date": "2003-11-30",
        "data_arc_in_days": 39,
        "observations_used": 41,
        "orbit_uncertainty": "7",
        "minimum_orbit_intersection": ".267948",
        "jupiter_tisserand_invariant": "3.577",
        "epoch_osculation": "2459000.5",
        "eccentricity": ".4164610297650981",
        "semi_major_axis": "2.159438749956863",
        "inclination": "4.78922890558535",
        "ascending_node_longitude": "232.4107343018112",
        "orbital_period": "1159.070259115834",
        "perihelion_distance": "1.260116664435172",
        "perihelion_argument": "152.0391336442023",
        "aphelion_distance": "3.058760835478555",
        "perihelion_time": "2458723.323331572269",
        "mean_anomaly": "86.08934605060134",
        "mean_motion": ".310593768728581",
        "equinox": "J2000",
        "orbit_class": {
            "orbit_class_type": "AMO",
            "orbit_class_description": "Near-Earth asteroid orbits similar to that of 1221 Amor",
            "orbit_class_range": "1.017 AU < q (perihelion) < 1.3 AU"
        }
    },
    "is_sentry_object": false
}